{"type": "FeatureCollection", "features": [ {"type": "Feature", "properties": {"norad_id": 31168, "name": "FENGYUN 1C DEB", "group": "fengyun-1c-debris", "lat": -60.5670662122286, "lon": 144.32363406671806, "alt_km": 684.1746540552595, "timestamp": "2025-12-22T04:03:39.450030+00:00", "meta": {"OBJECT_NAME": "FENGYUN 1C DEB", "OBJECT_ID": "1999-025BHW", "EPOCH": "2025-12-20T19:36:36.470592", "MEAN_MOTION": 14.67398966, "ECCENTRICITY": 0.01085271, "INCLINATION": 98.8914, "RA_OF_ASC_NODE": 126.749, "ARG_OF_PERICENTER": 38.7973, "MEAN_ANOMALY": 322.0957, "EPHEMERIS_TYPE": 0, "CLASSIFICATION_TYPE": "U", "NORAD_CAT_ID": 31168, "ELEMENT_SET_NO": 999, "REV_AT_EPOCH": 99239, "BSTAR": 0.00034126829, "MEAN_MOTION_DOT": 2.045e-05, "MEAN_MOTION_DDOT": 0}, "tle": {"line1": "1 31168U 99025BHW 25354.81708878  .00002045  00000+0  34127-3 0  9990", "line2": "2 31168  98.8914 126.7490 0108527  38.7973 322.0957 14.67398966992398"}}, "geometry": {"type": "Point", "coordinates": [144.32363406671806, -60.5670662122286]}}, {"type": "Feature", "properties": {"norad_id": 31169, "name": "FENGYUN 1C DEB", "group": "fengyun-1c-debris", "lat": -31.209398432288058, "lon": -162.57939035831245, "alt_km": 840.043554242372, "timestamp": "2025-12-22T04:03:39.450043+00:00", "meta": {"OBJECT_NAME": "FENGYUN 1C DEB", "OBJECT_ID": "1999-025BHX", "EPOCH": "2025-12-20T00:34:09.920352", "MEAN_MOTION": 14.26515357, "ECCENTRICITY": 0.00572465, "INCLINATION": 99.1561, "RA_OF_ASC_NODE": 20.7855, "ARG_OF_PERICENTER": 356.2914, "MEAN_ANOMALY": 3.7833, "EPHEMERIS_TYPE": 0, "CLASSIFICATION_TYPE": "U", "NORAD_CAT_ID": 31169, "ELEMENT_SET_NO": 999, "REV_AT_EPOCH": 57208, "BSTAR": 0.0014006304, "MEAN_MOTION_DOT": 3.388e-05, "MEAN_MOTION_DDOT": 0}, "tle": {"line1": "1 31169U 99025BHX 25354.02372593  .00003388  00000+0  14006-2 0  9999", "line2": "2 31169  99.1561  20.7855 0057246 356.2914   3.7833 14.26515357572089"}}, "geometry": {"type": "Point", "coordinates": [-162.57939035831245, -31.209398432288058]}}, {"type": "Feature", "properties": {"norad_id": 31171, "name": "FENGYUN 1C DEB", "group": "fengyun-1c-debris", "lat": -49.28595273700957, "lon": 155.7469591838415, "alt_km": 722.8370153085998, "timestamp": "2025-12-22T04:03:39.450053+00:00", "meta": {"OBJECT_NAME": "FENGYUN 1C DEB", "OBJECT_ID": "1999-025BHZ", "EPOCH": "2025-12-21T05:31:38.282016", "MEAN_MOTION": 14.3501981, "ECCENTRICITY": 0.015338, "INCLINATION": 98.015, "RA_OF_ASC_NODE": 344.2981, "ARG_OF_PERICENTER": 290.9239, "MEAN_ANOMALY": 132.7879, "EPHEMERIS_TYPE": 0, "CLASSIFICATION_TYPE": "U", "NORAD_CAT_ID": 31171, "ELEMENT_SET_NO": 999, "REV_AT_EPOCH": 95952, "BSTAR": 0.0028332, "MEAN_MOTION_DOT": 9.187e-05, "MEAN_MOTION_DDOT": 0}, "tle": {"line1": "1 31171U 99025BHZ 25355.23030419  .00009187  00000+0  28332-2 0  9994", "line2": "2 31171  98.0150 344.2981 0153380 290.9239 132.7879 14.35019810959522"}}, "geometry": {"type": "Point", "coordinates": [155.7469591838415, -49.28595273700957]}}, {"type": "Feature", "properties": {"norad_id": 31172, "name": "FENGYUN 1C DEB", "group": "fengyun-1c-debris", "lat": 14.441235970330231, "lon": -1.8199367693534247, "alt_km": 860.87913440392, "timestamp": "2025-12-22T04:03:39.450063+00:00", "meta": {"OBJECT_NAME": "FENGYUN 1C DEB", "OBJECT_ID": "1999-025BJA", "EPOCH": "2025-12-21T06:11:02.573952", "MEAN_MOTION": 14.31521172, "ECCENTRICITY": 0.0148148, "INCLINATION": 98.4247, "RA_OF_ASC_NODE": 359.4826, "ARG_OF_PERICENTER": 243.1, "MEAN_ANOMALY": 115.498, "EPHEMERIS_TYPE": 0, "CLASSIFICATION_TYPE": "U", "NORAD_CAT_ID": 31172, "ELEMENT_SET_NO": 999, "REV_AT_EPOCH": 97748, "BSTAR": 0.00011795, "MEAN_MOTION_DOT": 3.07e-06, "MEAN_MOTION_DDOT": 0}, "tle": {"line1": "1 31172U 99025BJA 25355.25766868  .00000307  00000+0  11795-3 0  9992", "line2": "2 31172  98.4247 359.4826 0148148 243.1000 115.4980 14.31521172977483"}}, "geometry": {"type": "Point", "coordinates": [-1.8199367693534247, 14.441235970330231]}}, {"type": "Feature", "properties": {"norad_id": 31175, "name": "FENGYUN 1C DEB", "group": "fengyun-1c-debris", "lat": 10.196458746719735, "lon": 177.98845015958722, "alt_km": 649.6108557485977, "timestamp": "2025-12-22T04:03:39.450073+00:00", "meta": {"OBJECT_NAME": "FENGYUN 1C DEB", "OBJECT_ID": "1999-025BJD", "EPOCH": "2025-12-19T17:44:11.172480", "MEAN_MOTION": 14.6030748, "ECCENTRICITY": 0.00743604, "INCLINATION": 98.3966, "RA_OF_ASC_NODE": 354.0042, "ARG_OF_PERICENTER": 143.5954, "MEAN_ANOMALY": 217.0335, "EPHEMERIS_TYPE": 0, "CLASSIFICATION_TYPE": "U", "NORAD_CAT_ID": 31175, "ELEMENT_SET_NO": 999, "REV_AT_EPOCH": 65741, "BSTAR": 0.0024269531, "MEAN_MOTION_DOT": 0.00012157, "MEAN_MOTION_DDOT": 0}, "tle": {"line1": "1 31175U 99025BJD 25353.73901820  .00012157  00000+0  24270-2 0  9992", "line2": "2 31175  98.3966 354.0042 0074360 143.5954 217.0335 14.60307480657416"}}, "geometry": {"type": "Point", "coordinates": [177.98845015958722, 10.196458746719735]}}, {"type": "Feature", "properties": {"norad_id": 31177, "name": "FENGYUN 1C DEB", "group": "fengyun-1c-debris", "lat": 75.24019936800424, "lon": -127.1453244142222, "alt_km": 1212.8719193765492, "timestamp": "2025-12-22T04:03:39.450083+00:00", "meta": {"OBJECT_NAME": "FENGYUN 1C DEB", "OBJECT_ID": "1999-025BJF", "EPOCH": "2025-12-19T17:38:35.721888", "MEAN_MOTION": 13.62390825, "ECCENTRICITY": 0.03085768, "INCLINATION": 98.7594, "RA_OF_ASC_NODE": 266.4801, "ARG_OF_PERICENTER": 295.8584, "MEAN_ANOMALY": 88.4957, "EPHEMERIS_TYPE": 0, "CLASSIFICATION_TYPE": "U", "NORAD_CAT_ID": 31177, "ELEMENT_SET_NO": 999, "REV_AT_EPOCH": 66307, "BSTAR": 0.0031990454, "MEAN_MOTION_DOT": 3.374e-05, "MEAN_MOTION_DDOT": 0}, "tle": {"line1": "1 31177U 99025BJF 25353.73513567  .00003374  00000+0  31990-2 0  9999", "line2": "2 31177  98.7594 266.4801 0308576 295.8584  88.4957 13.62390825663072"}}, "geometry": {"type": "Point", "coordinates": [-127.1453244142222, 75.24019936800424]}}, {"type": "Feature", "properties": {"norad_id": 31178, "name": "FENGYUN 1C DEB", "group": "fengyun-1c-debris", "lat": 22.404197253607055, "lon": -4.818468842716179, "alt_km": 822.1626073359421, "timestamp": "2025-12-22T04:03:39.450097+00:00", "meta": {"OBJECT_NAME": "FENGYUN 1C DEB", "OBJECT_ID": "1999-025BJG", "EPOCH": "2025-12-18T07:05:42.469152", "MEAN_MOTION": 14.22259738, "ECCENTRICITY": 0.01258717, "INCLINATION": 99.5125, "RA_OF_ASC_NODE": 354.9683, "ARG_OF_PERICENTER": 299.9049, "MEAN_ANOMALY": 58.9671, "EPHEMERIS_TYPE": 0, "CLASSIFICATION_TYPE": "U", "NORAD_CAT_ID": 31178, "ELEMENT_SET_NO": 999, "REV_AT_EPOCH": 95894, "BSTAR": 0.0016924306, "MEAN_MOTION_DOT": 4.025e-05, "MEAN_MOTION_DDOT": 0}, "tle": {"line1": "1 31178U 99025BJG 25352.29563043  .00004025  00000+0  16924-2 0  9998", "line2": "2 31178  99.5125 354.9683 0125871 299.9049  58.9671 14.22259738958941"}}, "geometry": {"type": "Point", "coordinates": [-4.818468842716179, 22.404197253607055]}}, {"type": "Feature", "properties": {"norad_id": 31179, "name": "FENGYUN 1C DEB", "group": "fengyun-1c-debris", "lat": -75.89033151957523, "lon": 55.03397196928578, "alt_km": 834.8978020007053, "timestamp": "2025-12-22T04:03:39.450107+00:00", "meta": {"OBJECT_NAME": "FENGYUN 1C DEB", "OBJECT_ID": "1999-025BJH", "EPOCH": "2025-12-18T07:16:13.358496", "MEAN_MOTION": 13.91941548, "ECCENTRICITY": 0.02152306, "INCLINATION": 99.0195, "RA_OF_ASC_NODE": 12.0814, "ARG_OF_PERICENTER": 345.6132, "MEAN_ANOMALY": 13.8961, "EPHEMERIS_TYPE": 0, "CLASSIFICATION_TYPE": "U", "NORAD_CAT_ID": 31179, "ELEMENT_SET_NO": 999, "REV_AT_EPOCH": 62018, "BSTAR": 0.00082156675, "MEAN_MOTION_DOT": 1.222e-05, "MEAN_MOTION_DDOT": 0}, "tle": {"line1": "1 31179U 99025BJH 25352.30293239  .00001222  00000+0  82157-3 0  9996", "line2": "2 31179  99.0195  12.0814 0215230 345.6132  13.8961 13.91941548620189"}}, "geometry": {"type": "Point", "coordinates": [55.03397196928578, -75.89033151957523]}}, {"type": "Feature", "properties": {"norad_id": 31180, "name": "FENGYUN 1C DEB", "group": "fengyun-1c-debris", "lat": 18.047229753945345, "lon": 124.32698442496331, "alt_km": 645.5278680617557, "timestamp": "2025-12-22T04:03:39.450117+00:00", "meta": {"OBJECT_NAME": "FENGYUN 1C DEB", "OBJECT_ID": "1999-025BJJ", "EPOCH": "2025-12-21T15:46:59.435040", "MEAN_MOTION": 13.70349468, "ECCENTRICITY": 0.0498023, "INCLINATION": 99.2181, "RA_OF_ASC_NODE": 126.8674, "ARG_OF_PERICENTER": 36.6586, "MEAN_ANOMALY": 340.9591, "EPHEMERIS_TYPE": 0, "CLASSIFICATION_TYPE": "U", "NORAD_CAT_ID": 31180, "ELEMENT_SET_NO": 999, "REV_AT_EPOCH": 64189, "BSTAR": 0.00014899, "MEAN_MOTION_DOT": 2.73e-06, "MEAN_MOTION_DDOT": 0}, "tle": {"line1": "1 31180U 99025BJJ 25355.65763235  .00000273  00000+0  14899-3 0  9990", "line2": "2 31180  99.2181 126.8674 0498023  36.6586 340.9591 13.70349468641893"}}, "geometry": {"type": "Point", "coordinates": [124.32698442496331, 18.047229753945345]}}, {"type": "Feature", "properties": {"norad_id": 31181, "name": "FENGYUN 1C DEB", "group": "fengyun-1c-debris", "lat": -55.51728719264978, "lon": -164.47898496568988, "alt_km": 894.1155993045368, "timestamp": "2025-12-22T04:03:39.450127+00:00", "meta": {"OBJECT_NAME": "FENGYUN 1C DEB", "OBJECT_ID": "1999-025BJK", "EPOCH": "2025-12-21T01:42:28.982592", "MEAN_MOTION": 14.11912678, "ECCENTRICITY": 0.00478932, "INCLINATION": 98.7784, "RA_OF_ASC_NODE": 27.4477, "ARG_OF_PERICENTER": 51.4256, "MEAN_ANOMALY": 7.0118, "EPHEMERIS_TYPE": 0, "CLASSIFICATION_TYPE": "U", "NORAD_CAT_ID": 31181, "ELEMENT_SET_NO": 999, "REV_AT_EPOCH": 95885, "BSTAR": 0.00060845685, "MEAN_MOTION_DOT": 1.081e-05, "MEAN_MOTION_DDOT": 0}, "tle": {"line1": "1 31181U 99025BJK 25355.07116878  .00001081  00000+0  60846-3 0  9993", "line2": "2 31181  98.7784  27.4477 0047893  51.4256   7.0118 14.11912678958856"}}, "geometry": {"type": "Point", "coordinates": [-164.47898496568988, -55.51728719264978]}}]}